UNKNOWN                 
1 82284U          23051.29926493  .00014156  00000+0  48534-2 0  9991
2 82284  99.5662 253.2969 0096962 159.5245 200.9865 14.33638270524381
UNKNOWN                 
1 82285U          23051.52764639  .00004765  00000+0  46167-2 0  9995
2 82285 101.9944 264.7413 0339783  16.0764 345.0841 13.57571597455840
UNKNOWN                 
1 82295U          23045.06015299  .00002540  00000+0  98554-3 0  9996
2 82295  66.6244 333.9464 0135787 232.6161 126.2510 14.26601880432181
UNKNOWN                 
1 82303U          23050.94323241  .00016549  00000+0  32346-1 0  9997
2 82303  81.9525 124.3973 0090479 174.4060 309.7839 13.34352233375214
UNKNOWN                 
1 82311U          23052.19978506  .00000731  00000+0  11262-2 0  9996
2 82311  99.5001 139.3530 0108860   8.7063 351.5930 13.52508388980312
UNKNOWN                 
1 82314U          23050.30367421  .00084428  00000+0  18292-2 0  9993
2 82314  99.2246 258.7489 0116718 318.2687  40.9691 15.37123271387272
UNKNOWN                 
1 82322U          23046.67335385  .00030310  00000+0  64079-2 0  9996
2 82322  98.5534 133.4812 0067920   3.9287 356.2430 14.57770033414670
UNKNOWN                 
1 82363U          23049.90853308  .00000354  00000+0  66389-3 0  9992
2 82363  66.9377 232.1005 0456698 100.8913 264.3851 13.14151098155132
UNKNOWN                 
1 82369U 99025    23050.34581865  .00000329  00000+0  25908-3 0  9993
2 82369  98.9841  81.8232 0083221 292.3592  66.8767 13.97225694413658
UNKNOWN                 
1 82381U          23050.80987720  .00007320  00000+0  21966-2 0  9990
2 82381  98.4696 250.0865 0016705  67.8858 292.4103 14.42929782361169
UNKNOWN                 
1 82383U          23051.16275267  .00069621  00000+0  55934-2 0  9992
2 82383  98.2520 124.9509 0005754 298.3241  61.7400 14.99698346394858
UNKNOWN                 
1 82402U          23051.93203584  .00004271  00000+0  46816-3 0  9992
2 82402  86.6665 232.3564 0008319 259.9600 100.0687 14.87500708301244
UNKNOWN                 
1 82410U          23041.97381652  .00000493  00000+0  57341-3 0  9994
2 82410  66.6592 303.0762 0063931 352.8294   7.1855 13.76291949444152
UNKNOWN                 
1 82428U          23052.56013525  .00045859  00000+0  27464-1 0  9997
2 82428  63.1647 129.9263 0133512  30.9421 329.9412 14.02366322278117
UNKNOWN                 
1 82432U 93036    23043.99362143  .00005231  00000+0  12784-2 0  9993
2 82432  74.0131 140.6830 0062608 197.9474 161.9478 14.51626897332566
UNKNOWN                 
1 82448U          23051.92265989  .00005760  00000+0  63165-3 0  9998
2 82448  85.8806  19.7047 0009568 340.5496  19.5362 14.87534412283806
UNKNOWN                 
1 82453U          23047.59064982  .00000019  00000+0  47284-3 0  9998
2 82453 102.0311   0.0309 0094259 312.9796  46.3394 12.39569056418413
UNKNOWN                 
1 82458U          23037.22459599  .00005284  00000+0  29011-2 0  9990
2 82458  66.5134 346.8266 0069618 345.1700  14.7343 14.11238625462646
UNKNOWN                 
1 82464U          23052.63522617  .00021076  00000+0  53258-2 0  9998
2 82464  70.9976 181.2068 0077438 262.6911 108.8990 14.49157046485616
UNKNOWN                 
1 82475U          23050.57595606  .00002400  00000+0  14109-2 0  9991
2 82475  99.1050  98.9362 0104710  86.0134 275.2996 14.06293767401532
UNKNOWN                 
1 82484U          23051.61042458  .00000184  00000+0  32592-3 0  9993
2 82484  99.4791 109.3280 0044722 269.0723  90.5291 13.55210435451610
UNKNOWN                 
1 82494U 93036    23052.66212503  .00009805  00000+0  23861-2 0  9998
2 82494  74.0216 200.1192 0010017 218.1060 141.9394 14.52833832333426
UNKNOWN                 
1 82500U          23052.54352069  .00002992  00000+0  16742-2 0  9994
2 82500  70.9771 350.3484 0145400 220.9878 138.0241 14.06309762994510
UNKNOWN                 
1 82517U          23052.32455043  .00018467  00000+0  44227-2 0  9997
2 82517  86.3840 159.5586 0013562  50.0164 310.2230 14.53378747275088
UNKNOWN                 
1 82524U          23052.47847179  .00003559  00000+0  15349-2 0  9995
2 82524  73.2916 317.0180 0172095 126.8975  45.0115 14.17273818430952
UNKNOWN                 
1 82529U          23044.76442914  .00000762  00000+0  12660-2 0  9997
2 82529  99.7939 150.6582 0244280 235.1082 281.6557 13.38948907451389
UNKNOWN                 
1 82545U          23046.28282727 -.00000026  00000+0  45758-3 0  9997
2 82545  64.8845  43.4119 0167061 132.2285 229.2953 11.30785584322288
UNKNOWN                 
1 82560U          23052.39854359  .00001421  00000+0  12706-2 0  9994
2 82560 100.0232 272.1835 0009809 117.7069  55.9432 13.86343833469588
UNKNOWN                 
1 82561U          23052.06501394  .00008734  00000+0  21776-2 0  9998
2 82561  63.1076 279.6988 0520661  21.9074  50.4366 13.93035505468465
UNKNOWN                 
1 82576U          23047.05066944  .00005969  00000+0  37710-2 0  9996
2 82576  99.2217  89.5621 0115229 329.2867  30.1588 14.01253443 89502
UNKNOWN                 
1 82597U          23050.99412834  .00002375  00000+0  90575-3 0  9996
2 82597  66.7753 316.8744 0105184 348.0477  11.8126 14.29491371481926
UNKNOWN                 
1 82616U          23046.61580948  .00183648  00000+0  12534-1 0  9994
2 82616  97.2737 104.8003 0059695  93.9135 266.8919 15.03873109413174
UNKNOWN                 
1 82617U          23052.27784674  .00000982  00000+0  27618-3 0  9996
2 82617  74.0304   4.1961 0041267 202.6169 157.3173 14.46753191488391
UNKNOWN                 
1 82627U          23048.02669472  .00000804  00000+0  21443-2 0  9995
2 82627  82.4737 261.5875 0007224 142.8591  18.1144 13.14248539443467
UNKNOWN                 
1 82642U          23052.55346720  .00001789  00000+0  11281-2 0  9995
2 82642  98.9999 323.6625 0143736 208.4201 150.9071 14.00551271472300
UNKNOWN                 
1 82683U 99057    23052.65818313  .00003604  00000+0  14769-2 0  9995
2 82683  98.1509 190.2187 0225990 143.0603 218.6379 14.14766508317057
UNKNOWN                 
1 82693U          23052.33790712  .00002550  00000+0  33592-2 0  9997
2 82693 100.5308 277.8438 0046717  38.1053 322.3374 13.61824733413810
UNKNOWN                 
1 82698U          23051.17602144  .00001778  00000+0  11356-2 0  9999
2 82698  61.6190   4.8844 0711635 276.5753  75.4783 13.22785992402248
UNKNOWN                 
1 82708U          23051.54368564  .00000672  00000+0  28263-2 0  9994
2 82708 102.1422 148.2907 0069158 196.0504 163.8394 12.87777454391283
UNKNOWN                 
1 82729U          23051.44455958  .00001117  00000+0  38400-2 0  9999
2 82729  67.9551 118.3171 0840822 352.2761   6.5925 12.16516184410316
UNKNOWN                 
1 82737U          23052.44393245  .00020777  00000+0  23367-1 0  9997
2 82737 102.8749 277.4868 0309743 244.9478 111.9196 13.52132630406897
UNKNOWN                 
1 82739U          23052.29783931  .00001518  00000+0  13894-2 0  9994
2 82739  99.0258 241.6626 0180869 150.8032  22.3815 13.77396997464671
UNKNOWN                 
1 82741U          23052.37676982  .00001849  00000+0  23064-2 0  9990
2 82741 102.8618 115.0469 0204176  28.8513 332.3727 13.58246602457485
UNKNOWN                 
1 82755U          23051.52808367  .00120966  00000+0  89515-2 0  9990
2 82755  99.8027 262.1063 0007410 337.0451  23.0434 15.02530141493788
UNKNOWN                 
1 82783U          23052.57738450  .00000500  00000+0  14737-2 0  9997
2 82783  90.3111   7.3281 0024716 357.3987   2.7007 13.07328230370328
UNKNOWN                 
1 82785U          23051.83143307  .00018681  00000+0  22540-2 0  9998
2 82785  63.1185  87.0908 0381022  61.6991 302.1973 14.43572704482732
UNKNOWN                 
1 82798U          23049.95244362  .00002473  00000+0  12500-2 0  9992
2 82798  82.9517 290.2111 0035041  16.1820 356.6674 14.15528460166607
UNKNOWN                 
1 82820U          23052.31692515  .00002907  00000+0  12898-2 0  9991
2 82820  99.8030  79.6856 0058228  32.9964 327.4823 14.23057920479248
UNKNOWN                 
1 82829U          23051.61668618  .00000309  00000+0  97582-2 0  9996
2 82829  65.0983 265.6527 0168040 202.2562 191.1912 11.28953031370235
UNKNOWN                 
1 82854U          23049.53687395  .00002958  00000+0  25543-2 0  9995
2 82854  82.6928 147.0821 0130202 300.9376  57.9038 13.82374315937832
UNKNOWN                 
1 82873U          23049.75419686  .00004718  00000+0  25297-2 0  9998
2 82873  99.9890 161.9634 0047078 234.1113 125.5680 14.13022686475472
UNKNOWN                 
1 82875U          23050.22622444  .00002781  00000+0  75662-3 0  9992
2 82875  98.6076  55.4137 0390978 346.0905  12.9735 14.11520363399336
UNKNOWN                 
1 82893U          23050.95699306  .00005154  00000+0  28947-2 0  9993
2 82893  98.9657 142.3063 0034292 106.8412 253.6524 14.10640631278265
UNKNOWN                 
1 82912U          23051.55601434  .00009610  00000+0  42759-2 0  9995
2 82912  65.8419 357.0193 0814729  15.2053 347.1966 13.17042614443660
UNKNOWN                 
1 82959U          23050.86566697  .00001891  00000+0  10753-2 0  9992
2 82959 100.1025  81.0355 0053385 173.2346 186.9553 14.10634541398866
UNKNOWN                 
1 82961U          23051.31276958  .00007760  00000+0  16086-1 0  9999
2 82961  99.9427 267.5424 0478915 209.5595 147.7634 12.96467577421437
UNKNOWN                 
1 82965U 70025    23050.53892138  .00001598  00000+0  23254-2 0  9993
2 82965 100.1892  85.4777 0002212 177.6779 182.4367 13.56700786384999
UNKNOWN                 
1 83903U          23051.80069473  .00000046  00000+0  00000+0 0  9999
2 83903   8.6848 300.6918 0128300 219.6443 337.2039  0.99111007 33493
UNKNOWN                 
1 83934U          23051.40262983 -.00000134  00000+0  00000+0 0  9999
2 83934   8.0807 306.1345 0219077 242.3365 325.2328  1.02662010 34746
UNKNOWN                 
1 83970U          23051.24066204  .00002780  00000+0  19126-2 0  9999
2 83970  18.3048 289.5408 5181029 181.5244 175.9133  5.19709599142156
